{
  "type": "FeatureCollection",
  "features": [
    {
      "type": "Feature",
      "properties": {
        "norad_id": 35165,
        "name": "FENGYUN 1C DEB",
        "group": "fengyun-1c-debris",
        "lat": -27.597555974362265,
        "lon": -94.80918500412108,
        "alt_km": 798.7661829743711,
        "timestamp": "2025-12-23T16:57:12.640524+00:00",
        "meta_object_name": "FENGYUN 1C DEB",
        "meta_object_id": "1999-025DMV",
        "meta_epoch": "2025-12-21T05:22:21.779616",
        "meta_mean_motion": 14.33882696,
        "meta_eccentricity": 0.0020007,
        "meta_inclination": 98.8797,
        "meta_ra_of_asc_node": 87.3309,
        "meta_arg_of_pericenter": 36.4089,
        "meta_mean_anomaly": 323.8451,
        "meta_ephemeris_type": 0,
        "meta_classification_type": "U",
        "meta_norad_cat_id": 35165,
        "meta_element_set_no": 999,
        "meta_rev_at_epoch": 89842,
        "meta_bstar": 0.0014686,
        "meta_mean_motion_dot": 4.055e-05,
        "meta_mean_motion_ddot": 0,
        "tle_line1": "1 35165U 99025DMV 25355.22386319  .00004055  00000+0  14686-2 0  9999",
        "tle_line2": "2 35165  98.8797  87.3309 0020007  36.4089 323.8451 14.33882696898426"
      },
      "geometry": {
        "type": "Point",
        "coordinates": [
          -94.80918500412108,
          -27.597555974362265
        ]
      }
    },
    {
      "type": "Feature",
      "properties": {
        "norad_id": 35167,
        "name": "FENGYUN 1C DEB",
        "group": "fengyun-1c-debris",
        "lat": -47.15696971155685,
        "lon": 161.39221877691205,
        "alt_km": 700.1764145789311,
        "timestamp": "2025-12-23T16:57:12.640534+00:00",
        "meta_object_name": "FENGYUN 1C DEB",
        "meta_object_id": "1999-025DMX",
        "meta_epoch": "2025-12-17T22:18:45.149472",
        "meta_mean_motion": 14.31170783,
        "meta_eccentricity": 0.02295949,
        "meta_inclination": 98.4497,
        "meta_ra_of_asc_node": 344.992,
        "meta_arg_of_pericenter": 188.7522,
        "meta_mean_anomaly": 170.9628,
        "meta_ephemeris_type": 0,
        "meta_classification_type": "U",
        "meta_norad_cat_id": 35167,
        "meta_element_set_no": 999,
        "meta_rev_at_epoch": 70094,
        "meta_bstar": 0.00031462149,
        "meta_mean_motion_dot": 1.059e-05,
        "meta_mean_motion_ddot": 0,
        "tle_line1": "1 35167U 99025DMX 25351.92968923  .00001059  00000+0  31462-3 0  9994",
        "tle_line2": "2 35167  98.4497 344.9920 0229594 188.7522 170.9628 14.31170783700948"
      },
      "geometry": {
        "type": "Point",
        "coordinates": [
          161.39221877691205,
          -47.15696971155685
        ]
      }
    },
    {
      "type": "Feature",
      "properties": {
        "norad_id": 35168,
        "name": "FENGYUN 1C DEB",
        "group": "fengyun-1c-debris",
        "lat": -81.37974597251525,
        "lon": -37.4372815508371,
        "alt_km": 938.7546228441406,
        "timestamp": "2025-12-23T16:57:12.640545+00:00",
        "meta_object_name": "FENGYUN 1C DEB",
        "meta_object_id": "1999-025DMY",
        "meta_epoch": "2025-12-21T22:57:46.882368",
        "meta_mean_motion": 14.15533628,
        "meta_eccentricity": 0.01261574,
        "meta_inclination": 98.2757,
        "meta_ra_of_asc_node": 247.1845,
        "meta_arg_of_pericenter": 100.9032,
        "meta_mean_anomaly": 260.6368,
        "meta_ephemeris_type": 0,
        "meta_classification_type": "U",
        "meta_norad_cat_id": 35168,
        "meta_element_set_no": 999,
        "meta_rev_at_epoch": 58054,
        "meta_bstar": 0.00025025253,
        "meta_mean_motion_dot": 4.9e-06,
        "meta_mean_motion_ddot": 0,
        "tle_line1": "1 35168U 99025DMY 25355.95679262  .00000490  00000+0  25025-3 0  9993",
        "tle_line2": "2 35168  98.2757 247.1845 0126157 100.9032 260.6368 14.15533628580542"
      },
      "geometry": {
        "type": "Point",
        "coordinates": [
          -37.4372815508371,
          -81.37974597251525
        ]
      }
    },
    {
      "type": "Feature",
      "properties": {
        "norad_id": 35169,
        "name": "FENGYUN 1C DEB",
        "group": "fengyun-1c-debris",
        "lat": -77.18995048556675,
        "lon": -72.63970999018258,
        "alt_km": 802.4653190438848,
        "timestamp": "2025-12-23T16:57:12.640555+00:00",
        "meta_object_name": "FENGYUN 1C DEB",
        "meta_object_id": "1999-025DMZ",
        "meta_epoch": "2025-12-22T11:41:46.878432",
        "meta_mean_motion": 14.58702147,
        "meta_eccentricity": 0.01521155,
        "meta_inclination": 99.1284,
        "meta_ra_of_asc_node": 241.0189,
        "meta_arg_of_pericenter": 78.4234,
        "meta_mean_anomaly": 283.3995,
        "meta_ephemeris_type": 0,
        "meta_classification_type": "U",
        "meta_norad_cat_id": 35169,
        "meta_element_set_no": 999,
        "meta_rev_at_epoch": 65922,
        "meta_bstar": 0.00048394501,
        "meta_mean_motion_dot": 2.588e-05,
        "meta_mean_motion_ddot": 0,
        "tle_line1": "1 35169U 99025DMZ 25356.48734813  .00002588  00000+0  48395-3 0  9992",
        "tle_line2": "2 35169  99.1284 241.0189 0152115  78.4234 283.3995 14.58702147659229"
      },
      "geometry": {
        "type": "Point",
        "coordinates": [
          -72.63970999018258,
          -77.18995048556675
        ]
      }
    },
    {
      "type": "Feature",
      "properties": {
        "norad_id": 35171,
        "name": "FENGYUN 1C DEB",
        "group": "fengyun-1c-debris",
        "lat": -5.636908240001774,
        "lon": 149.71580979205515,
        "alt_km": 872.1852906445984,
        "timestamp": "2025-12-23T16:57:12.640579+00:00",
        "meta_object_name": "FENGYUN 1C DEB",
        "meta_object_id": "1999-025DNB",
        "meta_epoch": "2025-12-23T03:12:35.130816",
        "meta_mean_motion": 13.95010904,
        "meta_eccentricity": 0.013845,
        "meta_inclination": 99.0084,
        "meta_ra_of_asc_node": 148.2594,
        "meta_arg_of_pericenter": 290.1599,
        "meta_mean_anomaly": 68.4716,
        "meta_ephemeris_type": 0,
        "meta_classification_type": "U",
        "meta_norad_cat_id": 35171,
        "meta_element_set_no": 999,
        "meta_rev_at_epoch": 88703,
        "meta_bstar": 0.001885404,
        "meta_mean_motion_dot": 2.705e-05,
        "meta_mean_motion_ddot": 0,
        "tle_line1": "1 35171U 99025DNB 25357.13373994  .00002705  00000+0  18854-2 0  9994",
        "tle_line2": "2 35171  99.0084 148.2594 0138450 290.1599  68.4716 13.95010904887038"
      },
      "geometry": {
        "type": "Point",
        "coordinates": [
          149.71580979205515,
          -5.636908240001774
        ]
      }
    },
    {
      "type": "Feature",
      "properties": {
        "norad_id": 35173,
        "name": "FENGYUN 1C DEB",
        "group": "fengyun-1c-debris",
        "lat": -22.194652969209017,
        "lon": -115.16899725894133,
        "alt_km": 768.1614676363533,
        "timestamp": "2025-12-23T16:57:12.640590+00:00",
        "meta_object_name": "FENGYUN 1C DEB",
        "meta_object_id": "1999-025DND",
        "meta_epoch": "2025-12-22T00:26:44.822112",
        "meta_mean_motion": 13.37371339,
        "meta_eccentricity": 0.04908426,
        "meta_inclination": 99.786,
        "meta_ra_of_asc_node": 67.2396,
        "meta_arg_of_pericenter": 191.1556,
        "meta_mean_anomaly": 167.8363,
        "meta_ephemeris_type": 0,
        "meta_classification_type": "U",
        "meta_norad_cat_id": 35173,
        "meta_element_set_no": 999,
        "meta_rev_at_epoch": 65953,
        "meta_bstar": 0.0019866257,
        "meta_mean_motion_dot": 2.041e-05,
        "meta_mean_motion_ddot": 0,
        "tle_line1": "1 35173U 99025DND 25356.01857433  .00002041  00000+0  19866-2 0  9994",
        "tle_line2": "2 35173  99.7860  67.2396 0490842 191.1556 167.8363 13.37371339659530"
      },
      "geometry": {
        "type": "Point",
        "coordinates": [
          -115.16899725894133,
          -22.194652969209017
        ]
      }
    },
    {
      "type": "Feature",
      "properties": {
        "norad_id": 35174,
        "name": "FENGYUN 1C DEB",
        "group": "fengyun-1c-debris",
        "lat": -53.54269146647022,
        "lon": -13.995336248986915,
        "alt_km": 673.2961395026668,
        "timestamp": "2025-12-23T16:57:12.640600+00:00",
        "meta_object_name": "FENGYUN 1C DEB",
        "meta_object_id": "1999-025DNE",
        "meta_epoch": "2025-12-13T04:07:25.072608",
        "meta_mean_motion": 14.98877767,
        "meta_eccentricity": 0.01541479,
        "meta_inclination": 98.9697,
        "meta_ra_of_asc_node": 321.54,
        "meta_arg_of_pericenter": 181.4297,
        "meta_mean_anomaly": 178.6503,
        "meta_ephemeris_type": 0,
        "meta_classification_type": "U",
        "meta_norad_cat_id": 35174,
        "meta_element_set_no": 999,
        "meta_rev_at_epoch": 90172,
        "meta_bstar": 0.0023807921,
        "meta_mean_motion_dot": 0.0003695,
        "meta_mean_motion_ddot": 0,
        "tle_line1": "1 35174U 99025DNE 25347.17181797  .00036950  00000+0  23808-2 0  9992",
        "tle_line2": "2 35174  98.9697 321.5400 0154147 181.4297 178.6503 14.98877767901722"
      },
      "geometry": {
        "type": "Point",
        "coordinates": [
          -13.995336248986915,
          -53.54269146647022
        ]
      }
    }
  ]
}